FUNCUBE-1 (AO-73)       
1 39444U 13066AE  25063.83897067  .00014058  00000+0  11183-2 0  9997
2 39444  97.7555  25.6705 0041566 356.0770   4.0121 14.99837631609070
UWE-3                   
1 39446U 13066AG  25063.84789584  .00007570  00000+0  74170-3 0  9991
2 39446  97.8137  15.4638 0056886  80.0702 280.6931 14.91324264607480
BRITE-CA1 (TORONTO)     
1 40020U 14033L   25063.94154397  .00001641  00000+0  26170-3 0  9995
2 40020  97.9080 198.7808 0080215 339.6018  20.1991 14.71162732573290
DUCHIFAT-1              
1 40021U 14033M   25063.93039124  .00027324  00000+0  11813-2 0  9998
2 40021  98.1025  70.2620 0006961 297.8152  62.2376 15.22418585583583
NANOSATC-BR1            
1 40024U 14033Q   25063.69042224  .00018259  00000+0  99541-3 0  9991
2 40024  98.0901  55.1579 0006088  36.2095 323.9546 15.14434676582523
QB50P1                  
1 40025U 14033R   25064.15472669  .00014087  00000+0  92041-3 0  9997
2 40025  98.0759  41.5964 0012191  32.5061 327.6914 15.07880233582601
QB50P2                  
1 40032U 14033Y   25063.85932972  .00012858  00000+0  88505-3 0  9993
2 40032  98.0338  30.9979 0008007 341.6829  18.4107 15.06003972581803
PERSEUS-M2              
1 40037U 14033AD  25064.09047028  .00003417  00000+0  33354-3 0  9997
2 40037  97.9475   2.5573 0013908  57.9315 302.3253 14.93037407581224
PERSEUS-M1              
1 40039U 14033AF  25063.80634100  .00003776  00000+0  36856-3 0  9998
2 40039  97.9226 357.5420 0013664  57.7749 302.4792 14.92972178580536
POLYITAN-1              
1 40042U 14033AJ  25063.92143679  .00019826  00000+0  10820-2 0  9996
2 40042  98.0994  47.6277 0009464 347.6803  12.4194 15.14353954582138
TIGRISAT                
1 40043U 14033AK  25063.89011423  .00004764  00000+0  59125-3 0  9991
2 40043  97.7209 222.3976 0052544 171.6651 188.5447 14.82100007576036
AEROCUBE 6A             
1 40045U 14033AM  25063.92456197  .00010743  00000+0  10888-2 0  9994
2 40045  97.6833 234.6178 0044940 141.2094 219.2365 14.90321330576534
AEROCUBE 6B             
1 40046U 14033AN  25063.92562036  .00011210  00000+0  11067-2 0  9995
2 40046  97.6811 233.6082 0043563 135.2907 225.1837 14.91403028576615
CANX-4                  
1 40055U 14034C   25064.14412375  .00001965  00000+0  26820-3 0  9991
2 40055  98.3745 275.8445 0014261  77.6268 282.6538 14.79806624575151
CANX-5                  
1 40056U 14034D   25063.53883996  .00002160  00000+0  29387-3 0  9994
2 40056  98.3749 275.2307 0014259  79.5996 280.6820 14.79817181575065
UKUBE-1                 
1 40074U 14037F   25064.11662511  .00013004  00000+0  97989-3 0  9992
2 40074  98.3851  18.2476 0002118  66.6276 293.5170 15.02628248577840
BRITE-PL2 (HEWELIUSZ)   
1 40119U 14049B   25064.19660368  .00003787  00000+0  38081-3 0  9996
2 40119  97.8826 169.3239 0014259 220.3801 139.6360 14.91767322571549
AEROCUBE 5C             
1 40965U 15058B   25063.83210584  .00004925  00000+0  42159-3 0  9993
2 40965  64.7674 278.7431 0178171 230.2698 128.2597 14.87247370295741
AEROCUBE 7              
1 40966U 15058C   25063.90008174  .00006506  00000+0  52137-3 0  9996
2 40966  64.7639 269.2411 0170846 230.0249 128.5756 14.90163254295884
FOX-1A (AO-85)          
1 40967U 15058D   25063.92415610  .00004269  00000+0  37636-3 0  9997
2 40967  64.7758 293.2681 0175045 225.6742 132.9909 14.86741616 43695
SINOD-D 1               
1 40968U 15058E   25063.90708696  .00006280  00000+0  51253-3 0  9991
2 40968  64.7756 282.8197 0166168 224.6720 134.0907 14.90080140 46586
SNAP-3 ALICE            
1 40970U 15058G   25063.81311872  .00039458  00000+0  18570-2 0  9997
2 40970  64.7650 218.5993 0113082 224.1784 135.0269 15.13769638 44980
LMRST-SAT               
1 40971U 15058H   25063.91573193  .00004057  00000+0  35811-3 0  9990
2 40971  64.7756 288.9251 0176996 227.0914 131.5228 14.86558001 43698
SNAP-3 EDDIE            
1 40972U 15058J   25063.68868950  .00039467  00000+0  18326-2 0  9997
2 40972  64.7627 211.8234 0113676 225.1785 134.0058 15.14161449 47076
PROPCUBE 3              
1 40973U 15058K   25063.82794960  .00006134  00000+0  50335-3 0  9995
2 40973  64.7687 274.1071 0172290 228.7250 129.8917 14.89198811 44771
BISONSAT                
1 40974U 15058L   25063.82163403  .00022008  00000+0  13501-2 0  9999
2 40974  64.7640 235.9147 0140032 226.8792 132.0547 15.02253476 44768
SNAP-3 JIMI             
1 40975U 15058M   25063.52819482  .00010740  00000+0  78300-3 0  9991
2 40975  64.7666 257.8723 0158988 227.9246 130.8256 14.94484937 43833
PROPCUBE 1 (FLORA)      
1 40976U 15058N   25063.92461524  .00003924  00000+0  35985-3 0  9994
2 40976  64.7755 305.8569 0176278 228.6050 129.9794 14.85280045 46460
SINOD-D 3               
1 40977U 15058P   25063.92807342  .00005223  00000+0  44512-3 0  9997
2 40977  64.7732 295.8705 0167376 227.8681 130.8107 14.88586323 44767
HORYU-4                 
1 41340U 16012D   25064.19093960  .00031554  00000+0  10239-2 0  9990
2 41340  30.9998  57.4884 0007319 152.3632 207.7402 15.30737238497977
RAVAN                   
1 41849U 16067B   25063.82368632  .00020496  00000+0  79303-3 0  9995
2 41849  98.0547 265.0559 0009762 211.7865 148.2783 15.26198869455560
CELTEE 1                
1 41850U 16067C   25063.79878319  .00009835  00000+0  56413-3 0  9992
2 41850  98.1105 254.1674 0001595  56.2204 303.9177 15.12791056454743
OPTICUBE 04             
1 41851U 16067D   25063.73654199  .00004865  00000+0  33514-3 0  9990
2 41851  98.0910 246.6213 0015980 261.6355  98.3059 15.06269646454410
AEROCUBE 8D             
1 41852U 16067E   25064.06963322  .00012201  00000+0  65083-3 0  9998
2 41852  98.1142 255.1351 0003905 313.1952  46.8951 15.15320708454806
AEROCUBE 8C             
1 41853U 16067F   25063.48796434  .00011288  00000+0  60142-3 0  9997
2 41853  98.0970 252.4941 0006092 234.8824 125.1836 15.15374527454707
PROMETHEUS 2-1          
1 41854U 16067G   25064.13729607  .00045110  00000+0  12161-2 0  9997
2 41854  98.0906 266.8982 0007978 236.0385 124.0100 15.37647195455533
PROMETHEUS 2-3          
1 41855U 16067H   25063.81942542  .00043221  00000+0  11690-2 0  9994
2 41855  98.0846 265.7907 0006942 247.3597 112.6912 15.37563713455483
CORVUS BC2              
1 42846U 17042X   25063.74008562  .00005781  00000+0  44791-3 0  9994
2 42846  97.3707 241.0855 0011644 266.0658  93.9236 15.01730868416498
CORVUS BC1              
1 42847U 17042Y   25063.74007697  .00005952  00000+0  45842-3 0  9991
2 42847  97.3734 241.5419 0010885 240.9040 119.1096 15.01955763416513
MIRATA                  
1 43015U 17073C   25064.18994753  .00069867  00000+0  17408-2 0  9991
2 43015  97.5557 315.7131 0112330  73.2044 288.1485 15.33650276395959
MAKERSAT 0              
1 43016U 17073D   25063.23751099  .00017624  00000+0  77230-3 0  9995
2 43016  97.5350 302.5497 0159996 116.2114 245.5664 15.11174467395006
SIRION PATHFINDER-2     
1 43759U 18099B   25064.11318051  .00007275  00000+0  47273-3 0  9998
2 43759  97.4906 119.3833 0011301 115.5477 244.6921 15.08260531341769
CORVUS BC4              
1 43767U 18099K   25064.11939088  .00005942  00000+0  40109-3 0  9996
2 43767  97.4736 115.6433 0009919 165.2260 194.9259 15.06933162341629
MOVE-II                 
1 43780U 18099Y   25063.87375765  .00078079  00000+0  16312-2 0  9998
2 43780  97.4784 134.5965 0004225 152.8232 207.3239 15.45217970342738
SPACEBEE-7              
1 43816U 18099BL  25063.45845236  .00030950  00000+0  11171-2 0  9991
2 43816  97.5079 132.3430 0007628 105.1627 255.0457 15.28418793341927
SHIELDS 1               
1 43850U 18104B   25064.19180787  .00035735  00000+0  56223-3 0  9995
2 43850  85.0141 104.0584 0009815 145.1604 215.0299 15.53386027346457
SONATE                  
1 44400U 19038Q   25063.99506596  .00077049  00000+0  87517-3 0  9995
2 44400  97.7082  80.4232 0007105 226.3031 133.7638 15.62058258314366
DUCHIFAT-3              
1 44854U 19089C   25063.86840282  .00044984  00000+0  12507-2 0  9991
2 44854  36.9465 245.5849 0005500  93.8584 266.2798 15.35880362288014
M2 PATHFINDER           
1 45727U 20037E   25063.72416083  .00006493  00000+0  51277-3 0  9990
2 45727  97.8012 245.7453 0012000 310.4962  49.5215 15.00984545254976
NETSAT-4                
1 46504U 20068U   25063.85865576  .00020361  00000+0  78838-3 0  9999
2 46504  97.8384  36.5520 0008659 160.6402 199.5166 15.26181267243777
NETSAT-3                
1 46505U 20068V   25063.89877148  .00016781  00000+0  67206-3 0  9990
2 46505  97.8373  35.7444 0007722 170.2060 189.9328 15.25104426243751
NETSAT-1                
1 46506U 20068W   25063.87216481  .00014199  00000+0  63740-3 0  9996
2 46506  97.8398  34.1850 0006427 184.2943 175.8238 15.21281346243644
NETSAT-2                
1 46507U 20068X   25063.89317052  .00018200  00000+0  71099-3 0  9998
2 46507  97.8379  36.1310 0005523 180.5053 179.6179 15.25931549243720
WILDTRACKCUBE-SIMBA     
1 47941U 21022K   25064.20950374  .00038970  00000+0  10449-2 0  9995
2 47941  97.4326 327.0194 0009011 309.2321  50.8123 15.37836910218345
GRBALPHA                
1 47959U 21022AD  25064.11898545  .00098813  00000+0  13752-2 0  9997
2 47959  97.4288 332.4414 0003543 291.0794  69.0082 15.56617357217519
LEDSAT                  
1 49069U 21073D   25064.16141256  .00051393  00000+0  10243-2 0  9996
2 49069  97.3991 142.6407 0012027  74.2588 285.9987 15.46645896196466
ROBUSTA-1F (MTCUBE 2)   
1 53109U 22080E   25064.09638521 -.00000003  00000+0  00000+0 0  9993
2 53109  70.1202 101.3904 0008421  28.3711 331.7406  6.42584319 61921
SITRO-AIS 5 (KATYS)     
1 57176U 23091L   25064.21836441  .00014928  00000+0  75791-3 0  9992
2 57176  97.5728 121.1243 0013738 306.6113  53.3856 15.16921621 92951
SITRO-AIS 6 (CHIRKIN)   
1 57192U 23091AC  25064.13483102  .00011669  00000+0  59460-3 0  9997
2 57192  97.5725 121.0652 0013627 306.7009  53.2971 15.16857569 92946
